EXPRESS-AT2             
1 39613U 14010B   19093.89127170 -.00000290  00000-0  00000-0 0  9997
2 39613   0.0381 314.3240 0000149 332.3808   5.9161  1.00272373 18134
AMAZONAS 4A             
1 39616U 14011A   19093.92041660 -.00000260  00000-0  00000-0 0  9991
2 39616   0.0621  56.4279 0003395 325.2068  67.6397  1.00267928 18300
ASTRA 5B                
1 39617U 14011B   19093.86963719  .00000146  00000-0  00000-0 0  9995
2 39617   0.0577  64.3414 0003365 307.3207 164.8027  1.00274817 18285
IRNSS-1B                
1 39635U 14017A   19093.11043265  .00000079  00000-0  00000+0 0  9998
2 39635  28.6463 284.4046 0019670 177.6087 184.0345  1.00278455 18415
LUCH 5V                 
1 39727U 14023A   19093.95408965 -.00000279  00000-0  00000-0 0  9995
2 39727   1.3720 302.4575 0003942 100.5302 227.1847  1.00270240536133
KAZSAT-3                
1 39728U 14023B   19094.16223451  .00000053  00000-0  00000+0 0  9993
2 39728   0.0090 206.9674 0000399 214.8431 247.2481  1.00272060 18058
EUTELSAT 3B             
1 39773U 14030A   19093.86396686  .00000011  00000-0  00000-0 0  9993
2 39773   0.0924 324.4507 0001915 210.5578 330.9958  1.00272569 17686
ASIASAT 8               
1 40107U 14046A   19093.86265833 -.00000042  00000-0  00000-0 0  9997
2 40107   0.0238 262.7338 0001904 120.3773 115.4604  1.00272738 75772
ASIASAT 6               
1 40141U 14052A   19093.88725884 -.00000371  00000-0  00000-0 0  9996
2 40141   0.0463 104.3373 0000569 291.9029 234.9924  1.00271295 16678
OPTUS 10                
1 40146U 14054A   19093.89449944 -.00000155  00000-0  00000+0 0  9993
2 40146   0.0461 169.2751 0001893 211.5598 289.1074  1.00272765 16739
MEASAT-3B               
1 40147U 14054B   19093.88158851 -.00000250  00000-0  00000-0 0  9994
2 40147   0.0400  46.3778 0002777 326.3157 228.0896  1.00271660 16529
LUCH (OLYMP)            
1 40258U 14058A   19094.75257888  .00000043  00000-0  00000+0 0  9996
2 40258   0.0182 244.0880 0001157 176.5090 103.0459  1.00274236 16565
HIMAWARI-8              
1 40267U 14060A   19093.89144617 -.00000284  00000-0  00000-0 0  9997
2 40267   0.0128 149.7439 0000885 217.6668 286.0944  1.00273187 16375
IRNSS-1C                
1 40269U 14061A   19093.87993104 -.00000172  00000-0  00000-0 0  9997
2 40269   2.0124 214.1590 0018086   9.9661   7.6505  1.00273708 16309
INTELSAT 30 (IS-30)     
1 40271U 14062A   19093.91622116 -.00000158  00000-0  00000-0 0  9992
2 40271   0.0229 205.6649 0001820 274.3017 306.7582  1.00268122 16253
ARSAT 1                 
1 40272U 14062B   19094.42333150 -.00000267  00000-0  00000+0 0  9997
2 40272   0.0201 218.4240 0001022 167.2779 247.3267  1.00270967 16500
EXPRESS-AM6             
1 40277U 14064A   19093.87399899  .00000089  00000-0  00000-0 0  9996
2 40277   0.0368 314.0692 0000857 158.1361  87.3366  1.00272852 15195
GSAT-16                 
1 40332U 14078A   19093.87434793  .00000076  00000-0  00000-0 0  9992
2 40332   0.0492  93.4595 0005919 337.8324 130.4338  1.00273668 15740
DIRECTV 14              
1 40333U 14078B   19093.90476786 -.00000134  00000-0  00000+0 0  9990
2 40333   0.0137 241.5997 0000464 338.9869 197.8223  1.00271929 15866
YAMAL 401               
1 40345U 14082A   19094.45560878 -.00000235  00000-0  00000+0 0  9997
2 40345   0.0150 187.9529 0000808 254.4578   4.0241  1.00271925 16034
ASTRA 2G                
1 40364U 14089A   19094.18243824  .00000142  00000-0  00000+0 0  9990
2 40364   0.0297  22.1725 0004269  23.6573 240.2647  1.00274905 15631
FENGYUN 2G              
1 40367U 14090A   19093.95504925 -.00000309  00000-0  00000-0 0  9998
2 40367   1.0646 102.7717 0001970 312.4776 220.0412  1.00277113 15651
MUOS-3                  
1 40374U 15002A   19093.86021572 -.00000139  00000-0  00000-0 0  9993
2 40374   3.2937 338.0082 0051877 177.3189 330.7448  1.00272880 15218
INMARSAT 5-F2           
1 40384U 15005A   19094.49851304 -.00000292  00000-0  00000+0 0  9990
2 40384   0.0232 196.4987 0000345  75.6579  44.8228  1.00268000 15295
ABS-3A                  
1 40424U 15010A   19093.86283279 -.00000035  00000-0  00000-0 0  9997
2 40424   0.0109 136.5764 0001848 171.3345 191.6127  1.00272079 15037
EUTELSAT 115 WEST B     
1 40425U 15010B   19094.12760184 -.00000033  00000-0  00000+0 0  9990
2 40425   0.0233  54.1618 0000018  23.8749  45.1432  1.00272355 15057
EXPRESS-AM7             
1 40505U 15012A   19093.94318516  .00000142  00000-0  00000-0 0  9999
2 40505   0.0065 174.6789 0002821 186.2203 210.5903  1.00272176 14971
IRNSS-1D                
1 40547U 15018A   19093.68671086 -.00000302  00000-0  00000+0 0  9994
2 40547  29.3773 284.4988 0022197 181.5447  85.1873  1.00279825 14851
BD-17                   
1 40549U 15019A   19093.59575240 -.00000151  00000-0  00000-0 0  9995
2 40549  53.6622 326.2692 0037274 187.9438 348.2612  1.00269059 14699
THOR 7                  
1 40613U 15022A   19093.86326897 -.00000017  00000-0  00000-0 0  9994
2 40613   0.0075 197.4686 0002442 178.0423 126.5031  1.00273196 14446
TURKMENALEM52E/MONACOSAT
1 40617U 15023A   19094.16092597  .00000096  00000-0  00000+0 0  9995
2 40617   0.0087  96.2622 0002309 295.8695 269.9915  1.00272139 14449
DIRECTV 15              
1 40663U 15026A   19094.41757394 -.00000123  00000-0  00000+0 0  9992
2 40663   0.0134 138.0945 0000703  74.7700  29.0355  1.00273821 14153
SKY MEXICO-1            
1 40664U 15026B   19094.21836313 -.00000242  00000-0  00000+0 0  9992
2 40664   0.0110 244.8320 0002289 148.7516 158.4658  1.00274342 14151
METEOSAT-11 (MSG-4)     
1 40732U 15034A   19094.58121267 -.00000012  00000-0  00000+0 0  9997
2 40732   0.8952 220.9851 0000875 128.6642  51.8031  1.00272283 13667
STAR ONE C4             
1 40733U 15034B   19094.27107260 -.00000272  00000-0  00000+0 0  9999
2 40733   0.0142 106.6712 0003193 286.3485 186.8518  1.00267870 13643
WGS F7 (USA 263)        
1 40746U 15036A   19093.82649847  .00000009  00000-0  00000-0 0  9995
2 40746   0.0171 156.0160 0000096 105.2638  43.0766  1.00271130 13512
INTELSAT 34 (IS-34)     
1 40874U 15039A   19094.42664647 -.00000293  00000-0  00000+0 0  9997
2 40874   0.0221 200.8952 0000729  24.8350  64.8124  1.00267470 13282
EUTELSAT 8 WEST B       
1 40875U 15039B   19093.86178597 -.00000074  00000-0  00000-0 0  9997
2 40875   0.0717  27.5028 0003187   0.0937 106.5282  1.00272544 13297
GSAT-6                  
1 40880U 15041A   19093.87993104 -.00000173  00000-0  00000-0 0  9996
2 40880   0.0320 118.6743 0006486 168.4067 304.5718  1.00271293 13268
INMARSAT 5-F3           
1 40882U 15042A   19094.59594762  .00000043  00000-0  00000+0 0  9990
2 40882   0.0231 194.9746 0000557 312.9285  78.8603  1.00266443 13177
MUOS-4                  
1 40887U 15044A   19093.87818631 -.00000104  00000-0  00000-0 0  9991
2 40887   3.4765 335.7628 0057306   2.4044 244.8410  1.00272582 13186
TJS-1                   
1 40892U 15046A   19094.75577171 -.00000162  00000-0  10000-3 0  9996
2 40892   0.0545 126.0165 0003073 288.1710 205.6972  1.00273193 13179
EXPRESS-AM8             
1 40895U 15048A   19093.93236791 -.00000120  00000-0  00000-0 0  9990
2 40895   0.0249 304.5328 0001595 157.5929  51.4649  1.00271724 12990
BD-20                   
1 40938U 15053A   19094.30707127 -.00000115  00000-0  00000+0 0  9995
2 40938  53.2657 289.2339 0047754 179.8908 290.0126  1.00281581 12985
SKY MUSTER (NBN1A)      
1 40940U 15054A   19093.89135894 -.00000287  00000-0  00000-0 0  9999
2 40940   0.0115 241.1618 0001496 133.5169 278.3616  1.00272069 12909
ARSAT 2                 
1 40941U 15054B   19094.20736660 -.00000232  00000-0  00000+0 0  9993
2 40941   0.0189 225.1865 0001284 158.8653 161.8172  1.00271482 12934
MORELOS 3               
1 40946U 15056A   19093.56074966 -.00000059  00000-0  00000+0 0  9999
2 40946   5.5039 328.1572 0001788 350.1876 321.9920  1.00272088 12893
APSTAR 9                
1 40982U 15059A   19093.89170788 -.00000274  00000-0  00000-0 0  9997
2 40982   0.0277 135.4875 0001169 226.0526 293.4072  1.00272522 12757
TURKSAT 4B              
1 40984U 15060A   19094.16048978  .00000107  00000-0  00000+0 0  9990
2 40984   0.0201 209.4864 0002010 161.5783 288.9094  1.00273783 12720
CHINASAT 2C (ZX 2C)     
1 41021U 15063A   19093.95583436 -.00000332  00000-0  00000-0 0  9997
2 41021   0.0481  93.8925 0003074 297.7608 247.8495  1.00271706 12626
GSAT-15                 
1 41028U 15065A   19093.88202469 -.00000267  00000-0  00000-0 0  9999
2 41028   0.0231 148.5064 0002238 238.0835 216.3456  1.00272706 12460
BADR-7 (ARABSAT-6B)     
1 41029U 15065B   19094.18243824  .00000137  00000-0  00000+0 0  9998
2 41029   0.0571 259.8664 0002792 357.0310  26.9950  1.00269549 12527
LAOSAT 1                
1 41034U 15067A   19093.88900356 -.00000352  00000-0  00000-0 0  9993
2 41034   0.0497   4.3833 0002071 332.7450 303.3377  1.00271856 12480
TELSTAR 12V             
1 41036U 15068A   19093.86039019 -.00000127  00000-0  00000-0 0  9993
2 41036   0.0234 197.4457 0002051 164.3886 124.8077  1.00270273 12246
CHINASAT 1C (ZX 1C)     
1 41103U 15073A   19093.95138534 -.00000158  00000-0  00000-0 0  9990
2 41103   0.5971  96.8117 0002889 231.0995 288.0312  1.00272899 12286
ELEKTRO-L 2             
1 41105U 15074A   19093.95033851 -.00000104  00000-0  00000-0 0  9990
2 41105   0.1840 120.9778 0002386 285.3055 203.7683  1.00271494 12131
COSMOS 2513             
1 41121U 15075A   19093.80756826 -.00000147  00000-0  00000+0 0  9993
2 41121   0.0599 112.5954 0002923 278.6695 171.5325  1.00271766 12210
EXPRESS-AMU1            
1 41191U 15082A   19094.15769823  .00000148  00000-0  00000+0 0  9998
2 41191   0.0122 243.3086 0002264 114.9566 286.7925  1.00275333 12124
GAOFEN 4                
1 41194U 15083A   19093.95627054 -.00000343  00000-0  00000-0 0  9997
2 41194   0.0311 169.1022 0002132 359.7982 113.0741  1.00272504 12100
